{
    "links": {
        "self": "http://www.neowsapp.com/rest/v1/neo/3626690?api_key=iIulBulltgU6a56xZRHN4H3l9WmuAYTsLGpBGhQ2"
    },
    "id": "3626690",
    "neo_reference_id": "3626690",
    "name": "(2013 CB88)",
    "designation": "2013 CB88",
    "nasa_jpl_url": "http://ssd.jpl.nasa.gov/sbdb.cgi?sstr=3626690",
    "absolute_magnitude_h": 23.0,
    "estimated_diameter": {
        "kilometers": {
            "estimated_diameter_min": 0.0667659413,
            "estimated_diameter_max": 0.1492931834
        },
        "meters": {
            "estimated_diameter_min": 66.7659413495,
            "estimated_diameter_max": 149.2931834393
        },
        "miles": {
            "estimated_diameter_min": 0.0414864197,
            "estimated_diameter_max": 0.0927664547
        },
        "feet": {
            "estimated_diameter_min": 219.0483710172,
            "estimated_diameter_max": 489.807047955
        }
    },
    "is_potentially_hazardous_asteroid": false,
    "close_approach_data": [
        {
            "close_approach_date": "2011-08-03",
            "close_approach_date_full": "2011-Aug-03 11:48",
            "epoch_date_close_approach": 1312372080000,
            "relative_velocity": {
                "kilometers_per_second": "20.1596060942",
                "kilometers_per_hour": "72574.5819390181",
                "miles_per_hour": "45095.0228720527"
            },
            "miss_distance": {
                "astronomical": "0.2758498966",
                "lunar": "107.3056097774",
                "kilometers": "41266556.971080242",
                "miles": "25641849.4734696596"
            },
            "orbiting_body": "Earth"
        },
        {
            "close_approach_date": "2012-02-25",
            "close_approach_date_full": "2012-Feb-25 04:14",
            "epoch_date_close_approach": 1330143240000,
            "relative_velocity": {
                "kilometers_per_second": "16.7185307299",
                "kilometers_per_hour": "60186.7106276328",
                "miles_per_hour": "37397.6813897088"
            },
            "miss_distance": {
                "astronomical": "0.405940345",
                "lunar": "157.910794205",
                "kilometers": "60727810.95906515",
                "miles": "37734511.95739307"
            },
            "orbiting_body": "Earth"
        },
        {
            "close_approach_date": "2012-08-31",
            "close_approach_date_full": "2012-Aug-31 23:34",
            "epoch_date_close_approach": 1346456040000,
            "relative_velocity": {
                "kilometers_per_second": "17.4702782086",
                "kilometers_per_hour": "62893.0015509319",
                "miles_per_hour": "39079.2653247999"
            },
            "miss_distance": {
                "astronomical": "0.2165964035",
                "lunar": "84.2560009615",
                "kilometers": "32402360.613260545",
                "miles": "20133893.264043721"
            },
            "orbiting_body": "Earth"
        },
        {
            "close_approach_date": "2013-02-12",
            "close_approach_date_full": "2013-Feb-12 20:51",
            "epoch_date_close_approach": 1360702260000,
            "relative_velocity": {
                "kilometers_per_second": "16.2626811223",
                "kilometers_per_hour": "58545.6520401648",
                "miles_per_hour": "36377.9914024013"
            },
            "miss_distance": {
                "astronomical": "0.153090798",
                "lunar": "59.552320422",
                "kilometers": "22902057.29740026",
                "miles": "14230678.519273188"
            },
            "orbiting_body": "Earth"
        },
        {
            "close_approach_date": "2014-02-12",
            "close_approach_date_full": "2014-Feb-12 11:01",
            "epoch_date_close_approach": 1392202860000,
            "relative_velocity": {
                "kilometers_per_second": "21.8826883131",
                "kilometers_per_hour": "78777.6779271992",
                "miles_per_hour": "48949.3854875978"
            },
            "miss_distance": {
                "astronomical": "0.4569924174",
                "lunar": "177.7700503686",
                "kilometers": "68365092.249190938",
                "miles": "42480098.4953054244"
            },
            "orbiting_body": "Earth"
        }
    ],
    "orbital_data": {
        "orbit_id": "7",
        "orbit_determination_date": "2017-04-06 08:46:50",
        "first_observation_date": "2013-02-12",
        "last_observation_date": "2013-02-18",
        "data_arc_in_days": 6,
        "observations_used": 20,
        "orbit_uncertainty": "8",
        "minimum_orbit_intersection": ".0783329",
        "jupiter_tisserand_invariant": "5.702",
        "epoch_osculation": "2456336.5",
        "eccentricity": ".148033279215463",
        "semi_major_axis": "1.051782313608331",
        "inclination": "31.86733224975309",
        "ascending_node_longitude": "147.3178031769901",
        "orbital_period": "393.9918355204408",
        "perihelion_distance": ".896083528704063",
        "perihelion_argument": "226.716913175553",
        "aphelion_distance": "1.207481098512599",
        "perihelion_time": "2456210.664699489012",
        "mean_anomaly": "114.9787993045998",
        "mean_motion": ".9137245179826137",
        "equinox": "J2000",
        "orbit_class": {
            "orbit_class_type": "APO",
            "orbit_class_description": "Near-Earth asteroid orbits which cross the Earth’s orbit similar to that of 1862 Apollo",
            "orbit_class_range": "a (semi-major axis) > 1.0 AU; q (perihelion) < 1.017 AU"
        }
    },
    "is_sentry_object": false
}